{
  "type": "FeatureCollection",
  "features": [
    {
      "type": "Feature",
      "properties": {
        "norad_id": 66863,
        "name": "STARLINK-36134",
        "group": "last-30-days",
        "lat": 42.579310641902985,
        "lon": 177.60768926795205,
        "alt_km": 325.59752995789495,
        "timestamp": "2025-12-16T19:34:23.018552+00:00",
        "meta_object_name": "STARLINK-36134",
        "meta_object_id": "2025-281R",
        "meta_epoch": "2025-12-15T22:00:01.999584",
        "meta_mean_motion": 15.82468616,
        "meta_eccentricity": 0.00015498,
        "meta_inclination": 43.001,
        "meta_ra_of_asc_node": 102.6861,
        "meta_arg_of_pericenter": 279.4073,
        "meta_mean_anomaly": 81.0645,
        "meta_ephemeris_type": 0,
        "meta_classification_type": "U",
        "meta_norad_cat_id": 66863,
        "meta_element_set_no": 999,
        "meta_rev_at_epoch": 191,
        "meta_bstar": -0.0074686794,
        "meta_mean_motion_dot": -0.0142717,
        "meta_mean_motion_ddot": 0,
        "tle_line1": "1 66863U 25281R   25349.91668981 -.01427170  00000+0 -74687-2 0  9995",
        "tle_line2": "2 66863  43.0010 102.6861 0001549 279.4073  81.0645 15.82468616  1916"
      },
      "geometry": {
        "type": "Point",
        "coordinates": [
          177.60768926795205,
          42.579310641902985
        ]
      }
    },
    {
      "type": "Feature",
      "properties": {
        "norad_id": 66864,
        "name": "STARLINK-36070",
        "group": "last-30-days",
        "lat": 42.80335518265839,
        "lon": -179.1852936860245,
        "alt_km": 325.87344204025976,
        "timestamp": "2025-12-16T19:34:23.018564+00:00",
        "meta_object_name": "STARLINK-36070",
        "meta_object_id": "2025-281S",
        "meta_epoch": "2025-12-15T22:00:01.999584",
        "meta_mean_motion": 15.8242699,
        "meta_eccentricity": 0.00017442,
        "meta_inclination": 43.0008,
        "meta_ra_of_asc_node": 102.6793,
        "meta_arg_of_pericenter": 279.6746,
        "meta_mean_anomaly": 83.3222,
        "meta_ephemeris_type": 0,
        "meta_classification_type": "U",
        "meta_norad_cat_id": 66864,
        "meta_element_set_no": 999,
        "meta_rev_at_epoch": 194,
        "meta_bstar": -0.0075192554,
        "meta_mean_motion_dot": -0.01433362,
        "meta_mean_motion_ddot": 0,
        "tle_line1": "1 66864U 25281S   25349.91668981 -.01433362  00000+0 -75193-2 0  9999",
        "tle_line2": "2 66864  43.0008 102.6793 0001744 279.6746  83.3222 15.82426990  1942"
      },
      "geometry": {
        "type": "Point",
        "coordinates": [
          -179.1852936860245,
          42.80335518265839
        ]
      }
    },
    {
      "type": "Feature",
      "properties": {
        "norad_id": 66865,
        "name": "STARLINK-36117",
        "group": "last-30-days",
        "lat": 42.979162724856565,
        "lon": -172.43927595151527,
        "alt_km": 326.2903277078349,
        "timestamp": "2025-12-16T19:34:23.018574+00:00",
        "meta_object_name": "STARLINK-36117",
        "meta_object_id": "2025-281T",
        "meta_epoch": "2025-12-15T22:00:01.999584",
        "meta_mean_motion": 15.82312518,
        "meta_eccentricity": 0.00016403,
        "meta_inclination": 43.0008,
        "meta_ra_of_asc_node": 102.6661,
        "meta_arg_of_pericenter": 277.6064,
        "meta_mean_anomaly": 90.7782,
        "meta_ephemeris_type": 0,
        "meta_classification_type": "U",
        "meta_norad_cat_id": 66865,
        "meta_element_set_no": 999,
        "meta_rev_at_epoch": 191,
        "meta_bstar": -0.0076758669,
        "meta_mean_motion_dot": -0.01452711,
        "meta_mean_motion_ddot": 0,
        "tle_line1": "1 66865U 25281T   25349.91668981 -.01452711  00000+0 -76759-2 0  9998",
        "tle_line2": "2 66865  43.0008 102.6661 0001640 277.6064  90.7782 15.82312518  1913"
      },
      "geometry": {
        "type": "Point",
        "coordinates": [
          -172.43927595151527,
          42.979162724856565
        ]
      }
    },
    {
      "type": "Feature",
      "properties": {
        "norad_id": 66866,
        "name": "STARLINK-36126",
        "group": "last-30-days",
        "lat": 42.92642510266699,
        "lon": -169.34525045008462,
        "alt_km": 326.3723505796552,
        "timestamp": "2025-12-16T19:34:23.018584+00:00",
        "meta_object_name": "STARLINK-36126",
        "meta_object_id": "2025-281U",
        "meta_epoch": "2025-12-15T22:00:01.999584",
        "meta_mean_motion": 15.82280218,
        "meta_eccentricity": 0.00015763,
        "meta_inclination": 43.0006,
        "meta_ra_of_asc_node": 102.6601,
        "meta_arg_of_pericenter": 280.7658,
        "meta_mean_anomaly": 90.0129,
        "meta_ephemeris_type": 0,
        "meta_classification_type": "U",
        "meta_norad_cat_id": 66866,
        "meta_element_set_no": 999,
        "meta_rev_at_epoch": 194,
        "meta_bstar": -0.0077295372,
        "meta_mean_motion_dot": -0.01459673,
        "meta_mean_motion_ddot": 0,
        "tle_line1": "1 66866U 25281U   25349.91668981 -.01459673  00000+0 -77295-2 0  9999",
        "tle_line2": "2 66866  43.0006 102.6601 0001576 280.7658  90.0129 15.82280218  1940"
      },
      "geometry": {
        "type": "Point",
        "coordinates": [
          -169.34525045008462,
          42.92642510266699
        ]
      }
    },
    {
      "type": "Feature",
      "properties": {
        "norad_id": 66867,
        "name": "STARLINK-36101",
        "group": "last-30-days",
        "lat": 42.76195399456948,
        "lon": -165.7802202282681,
        "alt_km": 326.79918656595237,
        "timestamp": "2025-12-16T19:34:23.018596+00:00",
        "meta_object_name": "STARLINK-36101",
        "meta_object_id": "2025-281V",
        "meta_epoch": "2025-12-15T22:00:01.999584",
        "meta_mean_motion": 15.82202124,
        "meta_eccentricity": 0.0001705,
        "meta_inclination": 43.0008,
        "meta_ra_of_asc_node": 102.6528,
        "meta_arg_of_pericenter": 279.8763,
        "meta_mean_anomaly": 93.8113,
        "meta_ephemeris_type": 0,
        "meta_classification_type": "U",
        "meta_norad_cat_id": 66867,
        "meta_element_set_no": 999,
        "meta_rev_at_epoch": 175,
        "meta_bstar": -0.0078173708,
        "meta_mean_motion_dot": -0.01469606,
        "meta_mean_motion_ddot": 0,
        "tle_line1": "1 66867U 25281V   25349.91668981 -.01469606  00000+0 -78174-2 0  9994",
        "tle_line2": "2 66867  43.0008 102.6528 0001705 279.8763  93.8113 15.82202124  1754"
      },
      "geometry": {
        "type": "Point",
        "coordinates": [
          -165.7802202282681,
          42.76195399456948
        ]
      }
    },
    {
      "type": "Feature",
      "properties": {
        "norad_id": 66868,
        "name": "STARLINK-36108",
        "group": "last-30-days",
        "lat": 42.47537651364235,
        "lon": -162.11706716084709,
        "alt_km": 327.2491141509645,
        "timestamp": "2025-12-16T19:34:23.018627+00:00",
        "meta_object_name": "STARLINK-36108",
        "meta_object_id": "2025-281W",
        "meta_epoch": "2025-12-15T22:00:01.999584",
        "meta_mean_motion": 15.82112279,
        "meta_eccentricity": 0.00017691,
        "meta_inclination": 43.0008,
        "meta_ra_of_asc_node": 102.6447,
        "meta_arg_of_pericenter": 277.1629,
        "meta_mean_anomaly": 99.5717,
        "meta_ephemeris_type": 0,
        "meta_classification_type": "U",
        "meta_norad_cat_id": 66868,
        "meta_element_set_no": 999,
        "meta_rev_at_epoch": 175,
        "meta_bstar": -0.0079216212,
        "meta_mean_motion_dot": -0.01481372,
        "meta_mean_motion_ddot": 0,
        "tle_line1": "1 66868U 25281W   25349.91668981 -.01481372  00000+0 -79216-2 0  9997",
        "tle_line2": "2 66868  43.0008 102.6447 0001769 277.1629  99.5717 15.82112279  1751"
      },
      "geometry": {
        "type": "Point",
        "coordinates": [
          -162.11706716084709,
          42.47537651364235
        ]
      }
    },
    {
      "type": "Feature",
      "properties": {
        "norad_id": 66869,
        "name": "STARLINK-36092",
        "group": "last-30-days",
        "lat": 42.12872019678641,
        "lon": -158.938796798105,
        "alt_km": 327.4703058454015,
        "timestamp": "2025-12-16T19:34:23.018640+00:00",
        "meta_object_name": "STARLINK-36092",
        "meta_object_id": "2025-281X",
        "meta_epoch": "2025-12-15T22:00:01.999584",
        "meta_mean_motion": 15.82065235,
        "meta_eccentricity": 0.00017509,
        "meta_inclination": 43.0007,
        "meta_ra_of_asc_node": 102.6383,
        "meta_arg_of_pericenter": 279.5985,
        "meta_mean_anomaly": 99.6944,
        "meta_ephemeris_type": 0,
        "meta_classification_type": "U",
        "meta_norad_cat_id": 66869,
        "meta_element_set_no": 999,
        "meta_rev_at_epoch": 194,
        "meta_bstar": -0.0079904158,
        "meta_mean_motion_dot": -0.01489775,
        "meta_mean_motion_ddot": 0,
        "tle_line1": "1 66869U 25281X   25349.91668981 -.01489775  00000+0 -79904-2 0  9997",
        "tle_line2": "2 66869  43.0007 102.6383 0001750 279.5985  99.6944 15.82065235  1944"
      },
      "geometry": {
        "type": "Point",
        "coordinates": [
          -158.938796798105,
          42.12872019678641
        ]
      }
    }
  ]
}